start=new Date('2023-01-21T00:00:00.000Z').valueOf();
sats=[{"INCLINATION":"53.0538","TIME_SYSTEM":"UTC","CLASSIFICATION_TYPE":"U","ARG_OF_PERICENTER":"88.3025","MEAN_MOTION_DOT":"-0.00001516","EPOCH":"2023-01-20T09:24:44.058240","TLE_LINE1":"1 46152U 20057AM  23020.39217660 -.00001516  00000-0 -82913-4 0  9995","ECCENTRICITY":"0.00014510","MEAN_MOTION":"15.06394682","MEAN_ANOMALY":"271.8131","GP_ID":"223543024","MEAN_MOTION_DDOT":"0.0000000000000","SITE":"AFETR","ELEMENT_SET_NO":"999","FILE":"3755973","DECAY_DATE":null,"REV_AT_EPOCH":"13359","BSTAR":"-0.00008291300000","PERIAPSIS":"546.225","OBJECT_NAME":"STARLINK-1634","APOAPSIS":"548.235","MEAN_ELEMENT_THEORY":"SGP4","REF_FRAME":"TEME","TLE_LINE2":"2 46152  53.0538  53.5614 0001451  88.3025 271.8131 15.06394682133593","OBJECT_TYPE":"PAYLOAD","NORAD_CAT_ID":"46152","COUNTRY_CODE":"US","EPHEMERIS_TYPE":"0","RA_OF_ASC_NODE":"53.5614","SEMIMAJOR_AXIS":"6925.365","OBJECT_ID":"2020-057AM","CENTER_NAME":"EARTH","LAUNCH_DATE":"2020-08-18","RCS_SIZE":"LARGE","PERIOD":"95.592"},{"PERIOD":"95.593","LAUNCH_DATE":"2020-08-18","RCS_SIZE":"LARGE","CENTER_NAME":"EARTH","OBJECT_ID":"2020-057AN","SEMIMAJOR_AXIS":"6925.379","RA_OF_ASC_NODE":"33.9998","EPHEMERIS_TYPE":"0","COUNTRY_CODE":"US","NORAD_CAT_ID":"46153","TLE_LINE2":"2 46153  53.0549  33.9998 0001758  88.8811 271.2379 15.06389942133851","OBJECT_TYPE":"PAYLOAD","REF_FRAME":"TEME","MEAN_ELEMENT_THEORY":"SGP4","APOAPSIS":"548.462","OBJECT_NAME":"STARLINK-1636","PERIAPSIS":"546.027","BSTAR":"0.00004454500000","REV_AT_EPOCH":"13385","DECAY_DATE":null,"FILE":"3755973","ELEMENT_SET_NO":"999","SITE":"AFETR","MEAN_MOTION_DDOT":"0.0000000000000","GP_ID":"223544274","MEAN_ANOMALY":"271.2379","ECCENTRICITY":"0.00017580","MEAN_MOTION":"15.06389942","TLE_LINE1":"1 46153U 20057AN  23020.29544951  .00000382  00000-0  44545-4 0  9998","EPOCH":"2023-01-20T07:05:26.837664","MEAN_MOTION_DOT":"0.00000382","TIME_SYSTEM":"UTC","CLASSIFICATION_TYPE":"U","ARG_OF_PERICENTER":"88.8811","INCLINATION":"53.0549"},{"TLE_LINE1":"1 46154U 20057AP  23020.37193093  .00027339  00000-0  18470-2 0  9992","MEAN_MOTION":"15.06403288","ECCENTRICITY":"0.00015480","TIME_SYSTEM":"UTC","CLASSIFICATION_TYPE":"U","ARG_OF_PERICENTER":"100.6654","INCLINATION":"53.0542","MEAN_MOTION_DOT":"0.00027339","EPOCH":"2023-01-20T08:55:34.832352","FILE":"3755973","ELEMENT_SET_NO":"999","PERIAPSIS":"546.131","BSTAR":"0.00184700000000","DECAY_DATE":null,"REV_AT_EPOCH":"13373","GP_ID":"223544023","MEAN_ANOMALY":"259.4509","MEAN_MOTION_DDOT":"0.0000000000000","SITE":"AFETR","REF_FRAME":"TEME","MEAN_ELEMENT_THEORY":"SGP4","NORAD_CAT_ID":"46154","TLE_LINE2":"2 46154  53.0542  43.6602 0001548 100.6654 259.4509 15.06403288133730","OBJECT_TYPE":"PAYLOAD","APOAPSIS":"548.276","OBJECT_NAME":"STARLINK-1642","LAUNCH_DATE":"2020-08-18","RCS_SIZE":"LARGE","PERIOD":"95.592","COUNTRY_CODE":"US","EPHEMERIS_TYPE":"0","RA_OF_ASC_NODE":"43.6602","CENTER_NAME":"EARTH","SEMIMAJOR_AXIS":"6925.338","OBJECT_ID":"2020-057AP"},{"EPHEMERIS_TYPE":"0","COUNTRY_CODE":"US","OBJECT_ID":"2020-057AQ","SEMIMAJOR_AXIS":"6925.389","CENTER_NAME":"EARTH","RA_OF_ASC_NODE":"13.5593","PERIOD":"95.593","LAUNCH_DATE":"2020-08-18","RCS_SIZE":"LARGE","OBJECT_NAME":"STARLINK-1667","APOAPSIS":"548.523","MEAN_ELEMENT_THEORY":"SGP4","REF_FRAME":"TEME","TLE_LINE2":"2 46155  53.0529  13.5593 0001833  73.5414 286.5777 15.06386932135398","OBJECT_TYPE":"PAYLOAD","NORAD_CAT_ID":"46155","MEAN_ANOMALY":"286.5777","GP_ID":"223543274","SITE":"AFETR","MEAN_MOTION_DDOT":"0.0000000000000","DECAY_DATE":null,"REV_AT_EPOCH":"13539","BSTAR":"0.00088070000000","PERIAPSIS":"545.984","ELEMENT_SET_NO":"999","FILE":"3755973","INCLINATION":"53.0529","CLASSIFICATION_TYPE":"U","TIME_SYSTEM":"UTC","ARG_OF_PERICENTER":"73.5414","EPOCH":"2023-01-20T09:31:24.750336","MEAN_MOTION_DOT":"0.00012856","ECCENTRICITY":"0.00018330","MEAN_MOTION":"15.06386932","TLE_LINE1":"1 46155U 20057AQ  23020.39681424  .00012856  00000-0  88070-3 0  9997"},{"PERIOD":"95.593","LAUNCH_DATE":"2020-08-18","RCS_SIZE":"LARGE","CENTER_NAME":"EARTH","OBJECT_ID":"2020-057AR","SEMIMAJOR_AXIS":"6925.386","RA_OF_ASC_NODE":"33.8941","EPHEMERIS_TYPE":"0","COUNTRY_CODE":"US","NORAD_CAT_ID":"46156","TLE_LINE2":"2 46156  53.0526  33.8941 0001677  95.8366 264.2814 15.06387834135114","OBJECT_TYPE":"PAYLOAD","REF_FRAME":"TEME","MEAN_ELEMENT_THEORY":"SGP4","APOAPSIS":"548.412","OBJECT_NAME":"STARLINK-1545","BSTAR":"-0.00043429000000","PERIAPSIS":"546.089","DECAY_DATE":null,"REV_AT_EPOCH":"13511","FILE":"3755973","ELEMENT_SET_NO":"999","SITE":"AFETR","MEAN_MOTION_DDOT":"0.0000000000000","GP_ID":"223543524","MEAN_ANOMALY":"264.2814","ECCENTRICITY":"0.00016770","MEAN_MOTION":"15.06387834","TLE_LINE1":"1 46156U 20057AR  23020.32126113 -.00006742  00000-0 -43429-3 0  9998","EPOCH":"2023-01-20T07:42:36.961632","MEAN_MOTION_DOT":"-0.00006742","CLASSIFICATION_TYPE":"U","ARG_OF_PERICENTER":"95.8366","TIME_SYSTEM":"UTC","INCLINATION":"53.0526"},{"RCS_SIZE":"LARGE","LAUNCH_DATE":"2020-08-18","PERIOD":"95.593","COUNTRY_CODE":"US","EPHEMERIS_TYPE":"0","RA_OF_ASC_NODE":"12.1630","CENTER_NAME":"EARTH","OBJECT_ID":"2020-057AS","SEMIMAJOR_AXIS":"6925.371","REF_FRAME":"TEME","MEAN_ELEMENT_THEORY":"SGP4","NORAD_CAT_ID":"46157","TLE_LINE2":"2 46157  53.0549  12.1630 0002634  83.5294 276.5995 15.06392725134865","OBJECT_TYPE":"PAYLOAD","APOAPSIS":"549.060","OBJECT_NAME":"STARLINK-1587","FILE":"3756200","ELEMENT_SET_NO":"999","BSTAR":"0.00106200000000","PERIAPSIS":"545.412","REV_AT_EPOCH":"13486","DECAY_DATE":null,"GP_ID":"223555155","MEAN_ANOMALY":"276.5995","MEAN_MOTION_DDOT":"0.0000000000000","SITE":"AFETR","TLE_LINE1":"1 46157U 20057AS  23020.70643684  .00015569  00000-0  10620-2 0  9999","ECCENTRICITY":"0.00026340","MEAN_MOTION":"15.06392725","ARG_OF_PERICENTER":"83.5294","CLASSIFICATION_TYPE":"U","TIME_SYSTEM":"UTC","INCLINATION":"53.0549","MEAN_MOTION_DOT":"0.00015569","EPOCH":"2023-01-20T16:57:16.142976"},{"EPHEMERIS_TYPE":"0","COUNTRY_CODE":"US","OBJECT_ID":"2020-057AT","SEMIMAJOR_AXIS":"6925.361","CENTER_NAME":"EARTH","RA_OF_ASC_NODE":"13.6676","PERIOD":"95.592","RCS_SIZE":"LARGE","LAUNCH_DATE":"2020-08-18","OBJECT_NAME":"STARLINK-1589","APOAPSIS":"548.664","MEAN_ELEMENT_THEORY":"SGP4","REF_FRAME":"TEME","OBJECT_TYPE":"PAYLOAD","TLE_LINE2":"2 46158  53.0539  13.6676 0002076  85.1231 274.9995 15.06395867135414","NORAD_CAT_ID":"46158","MEAN_ANOMALY":"274.9995","GP_ID":"223544523","SITE":"AFETR","MEAN_MOTION_DDOT":"0.0000000000000","DECAY_DATE":null,"REV_AT_EPOCH":"13541","BSTAR":"0.00040790000000","PERIAPSIS":"545.789","ELEMENT_SET_NO":"999","FILE":"3755973","INCLINATION":"53.0539","ARG_OF_PERICENTER":"85.1231","CLASSIFICATION_TYPE":"U","TIME_SYSTEM":"UTC","EPOCH":"2023-01-20T08:54:15.301152","MEAN_MOTION_DOT":"0.00005799","MEAN_MOTION":"15.06395867","ECCENTRICITY":"0.00020760","TLE_LINE1":"1 46158U 20057AT  23020.37101043  .00005799  00000-0  40790-3 0  9997"},{"MEAN_ANOMALY":"284.3938","GP_ID":"223542775","SITE":"AFETR","MEAN_MOTION_DDOT":"0.0000000000000","DECAY_DATE":null,"REV_AT_EPOCH":"13486","PERIAPSIS":"546.164","BSTAR":"-0.00007900900000","ELEMENT_SET_NO":"999","FILE":"3755973","INCLINATION":"53.0533","CLASSIFICATION_TYPE":"U","ARG_OF_PERICENTER":"75.7223","TIME_SYSTEM":"UTC","EPOCH":"2023-01-20T11:28:10.473600","MEAN_MOTION_DOT":"-0.00001458","ECCENTRICITY":"0.00015550","MEAN_MOTION":"15.06390937","TLE_LINE1":"1 46159U 20057AU  23020.47789900 -.00001458  00000-0 -79009-4 0  9999","EPHEMERIS_TYPE":"0","COUNTRY_CODE":"US","SEMIMAJOR_AXIS":"6925.376","OBJECT_ID":"2020-057AU","CENTER_NAME":"EARTH","RA_OF_ASC_NODE":"53.1917","PERIOD":"95.593","LAUNCH_DATE":"2020-08-18","RCS_SIZE":"LARGE","OBJECT_NAME":"STARLINK-1595","APOAPSIS":"548.318","MEAN_ELEMENT_THEORY":"SGP4","REF_FRAME":"TEME","TLE_LINE2":"2 46159  53.0533  53.1917 0001555  75.7223 284.3938 15.06390937134866","OBJECT_TYPE":"PAYLOAD","NORAD_CAT_ID":"46159"},{"SITE":"AFETR","MEAN_MOTION_DDOT":"0.0000000000000","MEAN_ANOMALY":"257.0211","GP_ID":"223543025","DECAY_DATE":null,"REV_AT_EPOCH":"13513","BSTAR":"0.00190940000000","PERIAPSIS":"546.180","ELEMENT_SET_NO":"999","FILE":"3755973","EPOCH":"2023-01-20T11:14:54.366720","MEAN_MOTION_DOT":"0.00028273","INCLINATION":"53.0542","CLASSIFICATION_TYPE":"U","ARG_OF_PERICENTER":"103.0945","TIME_SYSTEM":"UTC","MEAN_MOTION":"15.06398931","ECCENTRICITY":"0.00014970","TLE_LINE1":"1 46160U 20057AV  23020.46868480  .00028273  00000-0  19094-2 0  9999","OBJECT_ID":"2020-057AV","SEMIMAJOR_AXIS":"6925.352","CENTER_NAME":"EARTH","RA_OF_ASC_NODE":"33.2315","EPHEMERIS_TYPE":"0","COUNTRY_CODE":"US","PERIOD":"95.592","LAUNCH_DATE":"2020-08-18","RCS_SIZE":"LARGE","OBJECT_NAME":"STARLINK-1598","APOAPSIS":"548.254","TLE_LINE2":"2 46160  53.0542  33.2315 0001497 103.0945 257.0211 15.06398931135134","OBJECT_TYPE":"PAYLOAD","NORAD_CAT_ID":"46160","MEAN_ELEMENT_THEORY":"SGP4","REF_FRAME":"TEME"},{"APOAPSIS":"548.402","OBJECT_NAME":"STARLINK-1600","REF_FRAME":"TEME","MEAN_ELEMENT_THEORY":"SGP4","NORAD_CAT_ID":"46161","TLE_LINE2":"2 46161  53.0546  33.3290 0001711  82.3973 277.7210 15.06398779135139","OBJECT_TYPE":"PAYLOAD","COUNTRY_CODE":"US","EPHEMERIS_TYPE":"0","RA_OF_ASC_NODE":"33.3290","CENTER_NAME":"EARTH","SEMIMAJOR_AXIS":"6925.352","OBJECT_ID":"2020-057AW","LAUNCH_DATE":"2020-08-18","RCS_SIZE":"LARGE","PERIOD":"95.592","CLASSIFICATION_TYPE":"U","TIME_SYSTEM":"UTC","ARG_OF_PERICENTER":"82.3973","INCLINATION":"53.0546","MEAN_MOTION_DOT":"0.00001101","EPOCH":"2023-01-20T10:43:03.768960","TLE_LINE1":"1 46161U 20057AW  23020.44657140  .00001101  00000-0  92826-4 0  9994","ECCENTRICITY":"0.00017110","MEAN_MOTION":"15.06398779","GP_ID":"223544275","MEAN_ANOMALY":"277.7210","MEAN_MOTION_DDOT":"0.0000000000000","SITE":"AFETR","FILE":"3755973","ELEMENT_SET_NO":"999","PERIAPSIS":"546.032","BSTAR":"0.00009282600000","REV_AT_EPOCH":"13513","DECAY_DATE":null}];
